#dP2023 11  4  0  0  0.00000000      96 __u+U IGS20 FIT  IAC
## 2286 518400.00000000   900.00000000 60252 0.0000000000000
+  117   C06C07C08C09C10C11C12C13C14C16C19C20C21C22C23C24C25
+        C26C27C28C29C30C32C33C34C35C36C37C38C39C40C41C42C43
+        C44C45C46E02E03E04E05E07E08E09E10E11E12E13E15E19E21
+        E24E25E26E27E30E31E33E34E36G01G02G03G04G05G06G07G08
+        G09G10G11G12G13G14G16G17G18G19G20G21G22G23G24G25G26
+        G27G28G29G30G31G32J02J03J04R01R02R03R04R05R07R08R09
+        R11R12R13R14R15R16R17R18R19R20R21R22R24R25R26  0  0
++         9  8  8  9  8  6  8  8  8  9  6  5  6  5  8  7  6
++         7  5  6  7  7  6  4  7  7  5  6  9 10  7  6  7  6
++         8  6  6  7  5  6  6  6  6  7  7  7  8  5  5  6  6
++         6  6  6  5  6  6  7  6  6  4  6  6  6  6  6  5  5
++         6  5  5  6  6  6  6  6  6  6  6  6  5  6  6  7  5
++         6  5  6  6  5  6  9  7  7  6  6  7  6  6  7  6  7
++         7  8  6  6  6  5  6  6  6  7  6  5  6  7  7  0  0
%c M  cc GPS ccc cccc cccc cccc cccc ccccc ccccc ccccc ccccc
%c cc cc ccc ccc cccc cccc cccc cccc ccccc ccccc ccccc ccccc
%f  0.0000000  0.000000000  0.00000000000  0.000000000000000
%f  0.0000000  0.000000000  0.00000000000  0.000000000000000
%i    0    0    0    0      0      0      0      0         0
%i    0    0    0    0      0      0      0      0         0
/* INFORMATION & ANALYSIS CENTER (IAC)      ULTRA-RAPID DATA
/* S/V CLOCKS ARE ALIGNED TO GNSS TIME                      
/* G:C1WC2W R:C1PC2P E:C1XC5X C:C2IC6I J:C1CC2S             
/* PCV:IGS20_2280 OL/AL:FES2004  NONE     YN ORB:CoN CLK:CoN
*  2023 11 04 21 45  0.00000000
PC06 -16720.083194  26831.728332 -27993.661351     84.931378
PC07  -9212.020624  40265.928187  -7849.222301   -267.093336
PC08    281.966335  24674.512969  34237.682157    258.988385
PC09  -8358.310453  25998.134471 -31857.415216    -47.102496
PC10  -2383.967203  41800.132460   -100.351585     -5.389731
PC11  16525.150588 -19563.750829 -11040.157644    239.343732
PC12  24700.318397 -10922.719231   7098.803617    871.112150
PC13   5962.321359  28222.092063  31016.275211    377.906425
PC14   6170.003438 -24277.444386 -12346.670692    720.120535
PC16 -21405.277696  25943.411021 -25382.935384   -159.332968
PC19     65.434252  27656.941760   3674.009216   -974.979590
PC20 -10608.543830  18408.822724  18082.002223    144.983644
PC21  15806.036768   2845.666829 -22814.032525   -969.105695
PC22  11311.899260  21499.933322 -13726.448023   -238.311585
PC23 -18875.147299 -17396.331587  10938.031154   -828.475190
PC24  18085.101040  -7470.171258  19892.909160    563.923790
PC25  -1879.352748 -17664.967277  21504.948510    248.328265
PC26  26355.615580   5786.094796   7175.026527   -201.558827
PC27 -23593.269748   4146.590664 -14335.147481    223.429958
PC28 -12997.394974 -10129.582955 -22511.472765    168.448250
PC29  -6790.520753  20555.491167  17607.602651    197.010729
PC30 -21705.334642  17501.120263   1362.023132     -7.722104
PC32 -15848.658179  -2885.994512  22793.690734   -532.912242
PC33   -174.485962 -27656.209628  -3767.981422   -947.289010
PC34  20984.225826 -18170.342054  -2795.468448    296.267250
PC35  13501.887403   9620.385781  22436.422274    510.118223
PC36    558.748624  17467.563761 -21738.402736   -148.718313
PC37 -26227.094761  -6878.994076  -6528.325868   -875.388058
PC38  -8668.887388  21734.467686  35127.856160    115.621258
PC39 -24276.649595  26757.036241 -21912.344433     -5.522484
PC40 -14805.075816  37760.265441 -11002.875401    -42.728781
PC41 -11096.445102 -22011.452618  13130.409984   -871.460136
PC42  11306.986152 -17096.728308 -18910.907339   -506.179152
PC43   7630.129456 -20777.685532 -16989.601080     46.898857
PC44  23397.880475  -4806.198532  14398.864378    282.847409
PC45  19320.324326  17213.360220 -10488.424620    -42.960434
PC46 -17033.578023   8220.046464 -20510.435972    -97.209601
PE02  -1757.934451 -24381.835386  16677.278052     75.721967
PE03   8146.698638 -27388.874876   7728.795209    -71.068041
PE04   7430.466378  18697.093120 -21713.862813   -250.051552
PE05  18894.520854 -20155.851608 -10629.415463     34.230375
PE07 -18542.013480    600.710593  23060.551384    -86.061454
PE08  -6916.645935 -19066.675271  21553.533339   -172.007347
PE09  18382.890192   -537.921514 -23202.133498   -216.077881
PE10  24513.668284   8174.818572  14448.396745   -576.396111
PE11  29159.500077   1835.857733   4731.585236   3172.830189
PE12  16610.136987  12811.950772  20882.588440   -763.923228
PE13 -29005.087211  -2239.207318  -5450.941708    -19.608488
PE15 -16153.232136 -12902.307468 -21172.814284    -66.832151
PE19 -10060.680247  27296.390905  -5483.643542  -1282.105349
PE21 -13099.169716  10608.404554 -24330.541017   -562.474424
PE24  21152.817939  10589.023422  17797.237613   -413.736318
PE25  13358.871486 -10232.510685  24358.362944     -3.726852
PE26 -24236.461346   9994.201408  13742.107756    271.447684
PE27 -21103.574782  -9994.592601 -18179.607120   -191.788244
PE30 -16319.027444 -24662.854065  -1055.346625   -635.767375
PE31  16595.480688  24475.687500   1401.460848     -9.413748
PE33  -6645.842157  15799.546142  24136.743886      1.684771
PE34   5954.340079 -15871.124447 -24267.532020    -76.167373
PE36  24704.867716  -9560.105017 -13202.300679   -139.520320
PG01  -9415.303493 -13700.216109 -21139.563366    163.234592
PG02  -2768.905724 -14594.519713 -21519.109878   -533.222626
PG03 -11780.492841 -23592.673951  -3769.111266    -35.581366
PG04  -3530.012394 -19087.751965  18076.984177    203.883661
PG05   1917.559644  21353.046126  15438.706594   -149.144180
PG06 -24355.579834   6336.317866   8714.923000    514.274284
PG07 -23926.273648  -6677.148449  10517.695518     22.011434
PG08   2990.747601 -23784.181312 -11057.979432   -150.547515
PG09 -12012.950979  -9817.548343  21465.724198    -12.514863
PG10  17076.406336   1810.560445 -20167.869927    -60.104917
PG11 -15385.102143  12175.828107  17897.263765   -445.984204
PG12   8747.491271  24555.101703  -5577.007435   -443.467532
PG13 -12834.125173  22756.517569  -4289.421383    591.718209
PG14 -18468.099906  -5322.517173 -18380.537961    233.976827
PG16   5142.672519 -17961.488690  18379.603488   -427.680815
PG17 -18083.121740   5774.698102 -18192.440730    723.503038
PG18  24732.033711   5275.949895   8432.155883   -469.634034
PG19 -19269.414006  12883.669234 -12839.428729    394.447851
PG20  -7928.218556  13884.952470  21278.015097    403.291869
PG21    434.812336 -15033.462623 -21318.492066    145.105048
PG22 -15428.185295   1942.741372 -21046.019641     89.941563
PG23  19222.274350  13607.634019 -12448.658211     93.571751
PG24   4791.657510  15421.405900 -21510.185345   -363.426080
PG25  17338.719228  19430.896707   5581.320898    475.937760
PG26  12067.947311 -10152.863885  21230.098535    218.840052
PG27  12656.223113 -23065.659186    771.688366    -65.334636
PG28  24997.062897  -6258.457977   6418.315810    -39.145943
PG29  10638.059286  10823.332892  21744.808628   -610.232247
PG30 -26699.264520    570.271554    367.159556   -471.651041
PG31  20233.010319 -10202.068643  13985.996882   -225.410248
PG32  18082.245565 -10077.906990 -16338.292814   -581.753632
PJ02 -19671.448658  23941.186483 -23867.378589     -0.086183
PJ03 -30471.416654  27071.706680  16000.651698     -7.164709
PJ04 -27505.494841  27829.755293  21594.664414     71.944144
PR01  -1043.453580  25457.136844  -1192.697782     69.116272
PR02   6365.845895  17631.577943 -17300.178102    -22.351628
PR03  10912.978031   -330.080032 -23011.862230     88.408863
PR04   9205.240923 -17584.609660 -15987.276697    209.730404
PR05   2719.820281 -25344.716681   -293.019698    121.721628
PR07 -11005.765643   1392.501897  23005.864225     68.399454
PR08  -9146.904063  17810.630041  15881.842265    -73.171422
PR09 -19327.278927 -15876.592595   5231.900255    151.433817
PR11 -12386.415093   4113.631126 -21908.796466   -210.859298
PR12   5536.268602  15298.770941 -19627.468587     33.086491
PR13  17987.740444  16506.420629  -7414.486142    -40.938563
PR14  21271.013836   7609.485716  11839.415117     25.523158
PR15  11340.049170  -5148.971061  22278.775577     84.928113
PR16  -5411.874881 -15067.666980  19878.021224     20.318322
PR17  22657.220845  -4942.813328  10693.389110     31.961356
PR18  21507.959582 -12367.126104  -5812.294944    110.331868
PR19  11233.556050 -13474.999415 -18515.972212   -253.445381
PR20 -10208.025088  -6623.779865 -22409.044702   -102.971908
PR21 -22849.791058   5226.975450 -10013.431194    -50.878912
PR22 -21379.380926  12154.521729   6817.066170     91.980150
PR24  11182.667396   6337.976046  22059.896412    -30.892136
PR25 -22867.907389   3830.209493 -10594.731430     -6.482075
PR26  -9169.145368  17376.236270  16272.700336    -18.058672
EOF
